start=new Date('2022-05-15T00:00:00.000Z').valueOf();
sats=[{"BSTAR":"-0.03980800000000","CLASSIFICATION_TYPE":"U","SITE":"AFETR","ELEMENT_SET_NO":"999","MEAN_MOTION_DDOT":"0.0000000000000","COUNTRY_CODE":"US","CENTER_NAME":"EARTH","APOAPSIS":"523.751","PERIAPSIS":"521.441","RCS_SIZE":"LARGE","ARG_OF_PERICENTER":"42.8857","OBJECT_NAME":"STARLINK-3664","ECCENTRICITY":"0.00016740","SEMIMAJOR_AXIS":"6900.731","RA_OF_ASC_NODE":"180.5399","OBJECT_ID":"2022-025AE","GP_ID":"203566028","MEAN_ANOMALY":"62.4236","EPHEMERIS_TYPE":"0","NORAD_CAT_ID":"51984","REF_FRAME":"TEME","FILE":"3445938","INCLINATION":"53.2176","PERIOD":"95.083","OBJECT_TYPE":"PAYLOAD","MEAN_MOTION_DOT":"-0.00692027","DECAY_DATE":null,"LAUNCH_DATE":"2022-03-09","REV_AT_EPOCH":"130","MEAN_MOTION":"15.14468074","EPOCH":"2022-05-14T22:00:00.999936","TLE_LINE1":"1 51984U 22025AE  22134.91667824 -.00692027  00000-0 -39808-1 0  9990","TIME_SYSTEM":"UTC","MEAN_ELEMENT_THEORY":"SGP4","TLE_LINE2":"2 51984  53.2176 180.5399 0001674  42.8857  62.4236 15.14468074  1307"},{"PERIAPSIS":"529.168","RCS_SIZE":"LARGE","ARG_OF_PERICENTER":"51.3566","BSTAR":"-0.04268300000000","CLASSIFICATION_TYPE":"U","SITE":"AFETR","ELEMENT_SET_NO":"999","MEAN_MOTION_DDOT":"0.0000000000000","COUNTRY_CODE":"US","CENTER_NAME":"EARTH","APOAPSIS":"531.229","OBJECT_ID":"2022-025AF","GP_ID":"203566403","MEAN_ANOMALY":"280.8576","OBJECT_NAME":"STARLINK-3651","ECCENTRICITY":"0.00014920","SEMIMAJOR_AXIS":"6908.333","RA_OF_ASC_NODE":"180.5328","INCLINATION":"53.2175","FILE":"3445938","MEAN_MOTION_DOT":"-0.00691564","OBJECT_TYPE":"PAYLOAD","PERIOD":"95.240","DECAY_DATE":null,"NORAD_CAT_ID":"51985","EPHEMERIS_TYPE":"0","REF_FRAME":"TEME","TLE_LINE1":"1 51985U 22025AF  22134.91667824 -.00691564  00000-0 -42683-1 0  9991","TIME_SYSTEM":"UTC","TLE_LINE2":"2 51985  53.2175 180.5328 0001492  51.3566 280.8576 15.11968793  1302","MEAN_ELEMENT_THEORY":"SGP4","LAUNCH_DATE":"2022-03-09","REV_AT_EPOCH":"130","MEAN_MOTION":"15.11968793","EPOCH":"2022-05-14T22:00:00.999936"},{"PERIAPSIS":"520.797","RCS_SIZE":"LARGE","ARG_OF_PERICENTER":"53.9041","BSTAR":"-0.03951300000000","CLASSIFICATION_TYPE":"U","SITE":"AFETR","ELEMENT_SET_NO":"999","MEAN_MOTION_DDOT":"0.0000000000000","COUNTRY_CODE":"US","CENTER_NAME":"EARTH","APOAPSIS":"522.908","OBJECT_ID":"2022-025AG","GP_ID":"203566585","MEAN_ANOMALY":"87.9458","OBJECT_NAME":"STARLINK-3645","ECCENTRICITY":"0.00015300","SEMIMAJOR_AXIS":"6899.988","RA_OF_ASC_NODE":"180.5387","INCLINATION":"53.2176","FILE":"3445938","OBJECT_TYPE":"PAYLOAD","MEAN_MOTION_DOT":"-0.00691695","PERIOD":"95.068","DECAY_DATE":null,"NORAD_CAT_ID":"51986","EPHEMERIS_TYPE":"0","REF_FRAME":"TEME","TLE_LINE1":"1 51986U 22025AG  22134.91667824 -.00691695  00000-0 -39513-1 0  9995","TIME_SYSTEM":"UTC","TLE_LINE2":"2 51986  53.2176 180.5387 0001530  53.9041  87.9458 15.14712765  1302","MEAN_ELEMENT_THEORY":"SGP4","LAUNCH_DATE":"2022-03-09","REV_AT_EPOCH":"130","MEAN_MOTION":"15.14712765","EPOCH":"2022-05-14T22:00:00.999936"},{"ARG_OF_PERICENTER":"49.2237","PERIAPSIS":"522.314","RCS_SIZE":"LARGE","ELEMENT_SET_NO":"999","COUNTRY_CODE":"US","MEAN_MOTION_DDOT":"0.0000000000000","CENTER_NAME":"EARTH","APOAPSIS":"524.365","BSTAR":"-0.04010400000000","CLASSIFICATION_TYPE":"U","SITE":"AFETR","GP_ID":"203566152","MEAN_ANOMALY":"19.3978","OBJECT_ID":"2022-025AH","RA_OF_ASC_NODE":"180.5407","OBJECT_NAME":"STARLINK-3644","ECCENTRICITY":"0.00014860","SEMIMAJOR_AXIS":"6901.474","OBJECT_TYPE":"PAYLOAD","MEAN_MOTION_DOT":"-0.00692314","PERIOD":"95.098","DECAY_DATE":null,"FILE":"3445938","INCLINATION":"53.2176","REF_FRAME":"TEME","EPHEMERIS_TYPE":"0","NORAD_CAT_ID":"51987","TIME_SYSTEM":"UTC","MEAN_ELEMENT_THEORY":"SGP4","TLE_LINE2":"2 51987  53.2176 180.5407 0001486  49.2237  19.3978 15.14223447  1301","TLE_LINE1":"1 51987U 22025AH  22134.91667824 -.00692314  00000-0 -40104-1 0  9993","MEAN_MOTION":"15.14223447","EPOCH":"2022-05-14T22:00:00.999936","LAUNCH_DATE":"2022-03-09","REV_AT_EPOCH":"130"},{"BSTAR":"-0.03936200000000","SITE":"AFETR","CLASSIFICATION_TYPE":"U","COUNTRY_CODE":"US","MEAN_MOTION_DDOT":"0.0000000000000","ELEMENT_SET_NO":"999","APOAPSIS":"522.608","CENTER_NAME":"EARTH","RCS_SIZE":"LARGE","PERIAPSIS":"520.355","ARG_OF_PERICENTER":"49.6354","OBJECT_NAME":"STARLINK-3640","SEMIMAJOR_AXIS":"6899.616","ECCENTRICITY":"0.00016330","RA_OF_ASC_NODE":"180.5379","OBJECT_ID":"2022-025AJ","GP_ID":"203566373","MEAN_ANOMALY":"110.4297","EPHEMERIS_TYPE":"0","NORAD_CAT_ID":"51988","REF_FRAME":"TEME","FILE":"3445938","INCLINATION":"53.2176","PERIOD":"95.060","OBJECT_TYPE":"PAYLOAD","MEAN_MOTION_DOT":"-0.00691477","DECAY_DATE":null,"REV_AT_EPOCH":"130","LAUNCH_DATE":"2022-03-09","MEAN_MOTION":"15.14835069","EPOCH":"2022-05-14T22:00:00.999936","TLE_LINE1":"1 51988U 22025AJ  22134.91667824 -.00691477  00000-0 -39362-1 0  9997","TIME_SYSTEM":"UTC","MEAN_ELEMENT_THEORY":"SGP4","TLE_LINE2":"2 51988  53.2176 180.5379 0001633  49.6354 110.4297 15.14835069  1304"},{"SEMIMAJOR_AXIS":"6901.102","ECCENTRICITY":"0.00015950","OBJECT_NAME":"STARLINK-3642","RA_OF_ASC_NODE":"180.5403","OBJECT_ID":"2022-025AK","MEAN_ANOMALY":"42.2454","GP_ID":"203566059","SITE":"AFETR","CLASSIFICATION_TYPE":"U","BSTAR":"-0.03995700000000","APOAPSIS":"524.068","CENTER_NAME":"EARTH","MEAN_MOTION_DDOT":"0.0000000000000","COUNTRY_CODE":"US","ELEMENT_SET_NO":"999","RCS_SIZE":"LARGE","PERIAPSIS":"521.867","ARG_OF_PERICENTER":"44.7384","REV_AT_EPOCH":"130","LAUNCH_DATE":"2022-03-09","EPOCH":"2022-05-14T22:00:00.999936","MEAN_MOTION":"15.14345760","TLE_LINE1":"1 51989U 22025AK  22134.91667824 -.00692192  00000-0 -39957-1 0  9993","MEAN_ELEMENT_THEORY":"SGP4","TLE_LINE2":"2 51989  53.2176 180.5403 0001595  44.7384  42.2454 15.14345760  1300","TIME_SYSTEM":"UTC","NORAD_CAT_ID":"51989","EPHEMERIS_TYPE":"0","REF_FRAME":"TEME","FILE":"3445938","INCLINATION":"53.2176","DECAY_DATE":null,"OBJECT_TYPE":"PAYLOAD","PERIOD":"95.091","MEAN_MOTION_DOT":"-0.00692192"},{"INCLINATION":"53.2117","FILE":"3445938","OBJECT_TYPE":"PAYLOAD","PERIOD":"91.533","MEAN_MOTION_DOT":"0.00085433","DECAY_DATE":null,"EPHEMERIS_TYPE":"0","NORAD_CAT_ID":"51990","REF_FRAME":"TEME","TLE_LINE1":"1 51990U 22025AL  22134.91667824  .00085433  00000-0  60690-3 0  9997","TIME_SYSTEM":"UTC","TLE_LINE2":"2 51990  53.2117 171.3652 0003189   8.0930 313.2051 15.73198185  1308","MEAN_ELEMENT_THEORY":"SGP4","REV_AT_EPOCH":"130","LAUNCH_DATE":"2022-03-09","MEAN_MOTION":"15.73198185","EPOCH":"2022-05-14T22:00:00.999936","RCS_SIZE":"LARGE","PERIAPSIS":"347.620","ARG_OF_PERICENTER":"8.0930","BSTAR":"0.00060690000000","SITE":"AFETR","CLASSIFICATION_TYPE":"U","MEAN_MOTION_DDOT":"0.0000000000000","COUNTRY_CODE":"US","ELEMENT_SET_NO":"999","APOAPSIS":"351.911","CENTER_NAME":"EARTH","OBJECT_ID":"2022-025AL","GP_ID":"203566240","MEAN_ANOMALY":"313.2051","OBJECT_NAME":"STARLINK-3657","SEMIMAJOR_AXIS":"6727.900","ECCENTRICITY":"0.00031890","RA_OF_ASC_NODE":"171.3652"},{"INCLINATION":"53.2176","FILE":"3445938","OBJECT_TYPE":"PAYLOAD","PERIOD":"95.075","MEAN_MOTION_DOT":"-0.00691801","DECAY_DATE":null,"EPHEMERIS_TYPE":"0","NORAD_CAT_ID":"51991","REF_FRAME":"TEME","TLE_LINE1":"1 51991U 22025AM  22134.91667824 -.00691801  00000-0 -39656-1 0  9998","TIME_SYSTEM":"UTC","MEAN_ELEMENT_THEORY":"SGP4","TLE_LINE2":"2 51991  53.2176 180.5393 0001706  43.3678  80.2302 15.14590367  1305","REV_AT_EPOCH":"130","LAUNCH_DATE":"2022-03-09","MEAN_MOTION":"15.14590367","EPOCH":"2022-05-14T22:00:00.999936","RCS_SIZE":"LARGE","PERIAPSIS":"521.047","ARG_OF_PERICENTER":"43.3678","BSTAR":"-0.03965600000000","SITE":"AFETR","CLASSIFICATION_TYPE":"U","COUNTRY_CODE":"US","MEAN_MOTION_DDOT":"0.0000000000000","ELEMENT_SET_NO":"999","APOAPSIS":"523.402","CENTER_NAME":"EARTH","OBJECT_ID":"2022-025AM","GP_ID":"203566497","MEAN_ANOMALY":"80.2302","OBJECT_NAME":"STARLINK-3652","SEMIMAJOR_AXIS":"6900.359","ECCENTRICITY":"0.00017060","RA_OF_ASC_NODE":"180.5393"},{"BSTAR":"-0.00005011300000","SITE":"AFETR","CLASSIFICATION_TYPE":"U","COUNTRY_CODE":"US","MEAN_MOTION_DDOT":"0.0000000000000","ELEMENT_SET_NO":"999","APOAPSIS":"351.652","CENTER_NAME":"EARTH","RCS_SIZE":"LARGE","PERIAPSIS":"347.612","ARG_OF_PERICENTER":"10.4708","OBJECT_NAME":"STARLINK-3643","SEMIMAJOR_AXIS":"6727.767","ECCENTRICITY":"0.00030030","RA_OF_ASC_NODE":"171.3608","OBJECT_ID":"2022-025AN","GP_ID":"203566029","MEAN_ANOMALY":"312.7048","NORAD_CAT_ID":"51992","EPHEMERIS_TYPE":"0","REF_FRAME":"TEME","INCLINATION":"53.2117","FILE":"3445938","PERIOD":"91.531","OBJECT_TYPE":"PAYLOAD","MEAN_MOTION_DOT":"-0.00007665","DECAY_DATE":null,"REV_AT_EPOCH":"130","LAUNCH_DATE":"2022-03-09","MEAN_MOTION":"15.73244919","EPOCH":"2022-05-14T22:00:00.999936","TLE_LINE1":"1 51992U 22025AN  22134.91667824 -.00007665  00000-0 -50113-4 0  9992","TIME_SYSTEM":"UTC","MEAN_ELEMENT_THEORY":"SGP4","TLE_LINE2":"2 51992  53.2117 171.3608 0003003  10.4708 312.7048 15.73244919  1303"},{"INCLINATION":"53.2175","FILE":"3445938","MEAN_MOTION_DOT":"-0.00691289","OBJECT_TYPE":"PAYLOAD","PERIOD":"95.052","DECAY_DATE":null,"EPHEMERIS_TYPE":"0","NORAD_CAT_ID":"51993","REF_FRAME":"TEME","TLE_LINE1":"1 51993U 22025AP  22134.91667824 -.00691289  00000-0 -39213-1 0  9999","TIME_SYSTEM":"UTC","TLE_LINE2":"2 51993  53.2175 180.5371 0001785  44.0541 134.1895 15.14957406  1303","MEAN_ELEMENT_THEORY":"SGP4","LAUNCH_DATE":"2022-03-09","REV_AT_EPOCH":"130","MEAN_MOTION":"15.14957406","EPOCH":"2022-05-14T22:00:00.999936","PERIAPSIS":"519.878","RCS_SIZE":"LARGE","ARG_OF_PERICENTER":"44.0541","BSTAR":"-0.03921300000000","CLASSIFICATION_TYPE":"U","SITE":"AFETR","ELEMENT_SET_NO":"999","COUNTRY_CODE":"US","MEAN_MOTION_DDOT":"0.0000000000000","CENTER_NAME":"EARTH","APOAPSIS":"522.341","OBJECT_ID":"2022-025AP","GP_ID":"203566404","MEAN_ANOMALY":"134.1895","OBJECT_NAME":"STARLINK-3648","ECCENTRICITY":"0.00017850","SEMIMAJOR_AXIS":"6899.245","RA_OF_ASC_NODE":"180.5371"}];
